{
  "norad_id": 39030,
  "name": "GOKTURK 2",
  "history": [
    {
      "epoch": "2026-04-11T19:49:23.330208Z",
      "apogee_km": 644.6094718556278,
      "perigee_km": 642.6518030383086,
      "latitude_deg": -1.1698161489698659e-05,
      "longitude_deg": 165.18160610280265,
      "height_km": 646.9691123338321,
      "semi_major_axis_km": 7021.767637446968,
      "eccentricity": 0.0001394,
      "inclination_deg": 97.6872,
      "raan_deg": 302.5687,
      "arg_perigee_deg": 109.0131,
      "mean_anomaly_deg": 251.123,
      "mean_motion_rev_day": 14.75479165
    },
    {
      "epoch": "2026-04-13T07:37:47.831808Z",
      "apogee_km": 644.6607496806018,
      "perigee_km": 642.5929806575868,
      "latitude_deg": 0.0001011630489116701,
      "longitude_deg": -11.972832911319976,
      "height_km": 647.0110113600432,
      "semi_major_axis_km": 7021.763865169094,
      "eccentricity": 0.00014724,
      "inclination_deg": 97.6872,
      "raan_deg": 303.9869,
      "arg_perigee_deg": 110.6534,
      "mean_anomaly_deg": 249.4835,
      "mean_motion_rev_day": 14.75480354
    },
    {
      "epoch": "2026-04-14T19:26:12.126048Z",
      "apogee_km": 644.6991611224903,
      "perigee_km": 642.5406730461773,
      "latitude_deg": 1.6320166518540066e-05,
      "longitude_deg": 170.8738231986146,
      "height_km": 647.0046315914203,
      "semi_major_axis_km": 7021.7569170843335,
      "eccentricity": 0.0001537,
      "inclination_deg": 97.687,
      "raan_deg": 305.4053,
      "arg_perigee_deg": 109.7857,
      "mean_anomaly_deg": 250.3519,
      "mean_motion_rev_day": 14.75482544
    },
    {
      "epoch": "2026-04-15T19:51:01.516032Z",
      "apogee_km": 644.7157952595389,
      "perigee_km": 642.5320276160819,
      "latitude_deg": -3.074107152644562e-06,
      "longitude_deg": 164.63220031466915,
      "height_km": 646.9906930933412,
      "semi_major_axis_km": 7021.76091143781,
      "eccentricity": 0.0001555,
      "inclination_deg": 97.6867,
      "raan_deg": 306.3721,
      "arg_perigee_deg": 108.554,
      "mean_anomaly_deg": 251.5839,
      "mean_motion_rev_day": 14.75481285
    },
    {
      "epoch": "2026-04-16T20:15:50.803200Z",
      "apogee_km": 644.7421017265988,
      "perigee_km": 642.4979481814225,
      "latitude_deg": -3.34087573521454e-05,
      "longitude_deg": 158.391108471533,
      "height_km": 647.0031302399123,
      "semi_major_axis_km": 7021.75702495401,
      "eccentricity": 0.0001598,
      "inclination_deg": 97.6861,
      "raan_deg": 307.339,
      "arg_perigee_deg": 108.9181,
      "mean_anomaly_deg": 251.2202,
      "mean_motion_rev_day": 14.7548251
    },
    {
      "epoch": "2026-04-17T22:18:19.251072Z",
      "apogee_km": 644.768204188118,
      "perigee_km": 642.4552401590336,
      "latitude_deg": 1.9760285922691357e-05,
      "longitude_deg": 127.73439436420797,
      "height_km": 646.9845684723014,
      "semi_major_axis_km": 7021.7487221735755,
      "eccentricity": 0.0001647,
      "inclination_deg": 97.6857,
      "raan_deg": 308.3703,
      "arg_perigee_deg": 107.805,
      "mean_anomaly_deg": 252.334,
      "mean_motion_rev_day": 14.75485127
    },
    {
      "epoch": "2026-04-18T19:27:49.912704Z",
      "apogee_km": 644.7918288148512,
      "perigee_km": 642.4339252061509,
      "latitude_deg": -2.581154087586211e-05,
      "longitude_deg": 170.32539433444524,
      "height_km": 646.9932577245437,
      "semi_major_axis_km": 7021.7498770105,
      "eccentricity": 0.0001679,
      "inclination_deg": 97.6855,
      "raan_deg": 309.208,
      "arg_perigee_deg": 107.8408,
      "mean_anomaly_deg": 252.2985,
      "mean_motion_rev_day": 14.75484763
    },
    {
      "epoch": "2026-04-19T19:52:39.144576Z",
      "apogee_km": 644.7982472147305,
      "perigee_km": 642.4319167631002,
      "latitude_deg": 3.405668398191059e-05,
      "longitude_deg": 164.08421842960402,
      "height_km": 646.9614492425802,
      "semi_major_axis_km": 7021.752081988915,
      "eccentricity": 0.0001685,
      "inclination_deg": 97.6852,
      "raan_deg": 310.1746,
      "arg_perigee_deg": 106.0557,
      "mean_anomaly_deg": 254.0839,
      "mean_motion_rev_day": 14.75484068
    },
    {
      "epoch": "2026-04-20T13:46:51.204864Z",
      "apogee_km": 644.8215530852885,
      "perigee_km": 642.4085982020133,
      "latitude_deg": 8.208820957498684e-05,
      "longitude_deg": -104.4927051639117,
      "height_km": 646.9708062039392,
      "semi_major_axis_km": 7021.752075643651,
      "eccentricity": 0.00017182,
      "inclination_deg": 97.6852,
      "raan_deg": 310.8832,
      "arg_perigee_deg": 106.2027,
      "mean_anomaly_deg": 253.9373,
      "mean_motion_rev_day": 14.7548407
    },
    {
      "epoch": "2026-04-21T20:42:17.252352Z",
      "apogee_km": 644.8558871056302,
      "perigee_km": 642.3477220046434,
      "latitude_deg": 4.7494228656252396e-05,
      "longitude_deg": 151.6032655475138,
      "height_km": 646.9279929018901,
      "semi_major_axis_km": 7021.738804555137,
      "eccentricity": 0.0001786,
      "inclination_deg": 97.6853,
      "raan_deg": 312.1077,
      "arg_perigee_deg": 104.1817,
      "mean_anomaly_deg": 255.9592,
      "mean_motion_rev_day": 14.75488253
    },
    {
      "epoch": "2026-04-22T19:29:26.995200Z",
      "apogee_km": 644.873937369055,
      "perigee_km": 642.3292593010183,
      "latitude_deg": -6.563884007876967e-05,
      "longitude_deg": 169.77909380116682,
      "height_km": 646.9261668037078,
      "semi_major_axis_km": 7021.738598335036,
      "eccentricity": 0.0001812,
      "inclination_deg": 97.6856,
      "raan_deg": 313.0099,
      "arg_perigee_deg": 103.9007,
      "mean_anomaly_deg": 256.2404,
      "mean_motion_rev_day": 14.75488318
    },
    {
      "epoch": "2026-04-23T15:01:18.274944Z",
      "apogee_km": 644.8822723844432,
      "perigee_km": 642.3346426975386,
      "latitude_deg": -3.546222533004144e-05,
      "longitude_deg": -123.21368343224395,
      "height_km": 646.9215095906776,
      "semi_major_axis_km": 7021.745457540991,
      "eccentricity": 0.00018141,
      "inclination_deg": 97.6858,
      "raan_deg": 313.7829,
      "arg_perigee_deg": 103.3525,
      "mean_anomaly_deg": 256.7887,
      "mean_motion_rev_day": 14.75486156
    },
    {
      "epoch": "2026-04-24T20:19:04.975968Z",
      "apogee_km": 644.9121974640593,
      "perigee_km": 642.291684491287,
      "latitude_deg": 1.695401262078227e-05,
      "longitude_deg": 157.2986639755222,
      "height_km": 646.9313960526921,
      "semi_major_axis_km": 7021.738940977673,
      "eccentricity": 0.0001866,
      "inclination_deg": 97.686,
      "raan_deg": 314.943,
      "arg_perigee_deg": 103.7158,
      "mean_anomaly_deg": 256.426,
      "mean_motion_rev_day": 14.7548821
    },
    {
      "epoch": "2026-04-25T19:06:14.508000Z",
      "apogee_km": 644.9277131273839,
      "perigee_km": 642.2594555053438,
      "latitude_deg": -4.982412503702096e-05,
      "longitude_deg": 175.47556896197688,
      "height_km": 646.931614073503,
      "semi_major_axis_km": 7021.730584316364,
      "eccentricity": 0.00019,
      "inclination_deg": 97.6862,
      "raan_deg": 315.8454,
      "arg_perigee_deg": 103.8467,
      "mean_anomaly_deg": 256.2954,
      "mean_motion_rev_day": 14.75490844
    },
    {
      "epoch": "2026-04-26T22:46:21.788256Z",
      "apogee_km": 644.935493893061,
      "perigee_km": 642.2442064259312,
      "latitude_deg": 6.726654283170151e-05,
      "longitude_deg": 120.40460668173473,
      "height_km": 646.9044454755433,
      "semi_major_axis_km": 7021.726850159496,
      "eccentricity": 0.00019164,
      "inclination_deg": 97.6861,
      "raan_deg": 316.9411,
      "arg_perigee_deg": 102.7036,
      "mean_anomaly_deg": 257.4389,
      "mean_motion_rev_day": 14.75492021
    },
    {
      "epoch": "2026-04-27T19:55:52.081824Z",
      "apogee_km": 644.9467356578862,
      "perigee_km": 642.2349443660751,
      "latitude_deg": -2.1388395378707024e-05,
      "longitude_deg": 162.9973508700614,
      "height_km": 646.8708783648475,
      "semi_major_axis_km": 7021.72784001198,
      "eccentricity": 0.0001931,
      "inclination_deg": 97.6859,
      "raan_deg": 317.779,
      "arg_perigee_deg": 101.1152,
      "mean_anomaly_deg": 259.0275,
      "mean_motion_rev_day": 14.75491709
    },
    {
      "epoch": "2026-04-28T20:20:40.708032Z",
      "apogee_km": 644.9709715455438,
      "perigee_km": 642.1959876120145,
      "latitude_deg": 3.346688808675116e-06,
      "longitude_deg": 156.7589119728806,
      "height_km": 646.8468555078555,
      "semi_major_axis_km": 7021.720479578779,
      "eccentricity": 0.0001976,
      "inclination_deg": 97.6858,
      "raan_deg": 318.7458,
      "arg_perigee_deg": 100.1629,
      "mean_anomaly_deg": 259.9804,
      "mean_motion_rev_day": 14.75494029
    },
    {
      "epoch": "2026-04-29T19:07:49.986048Z",
      "apogee_km": 644.9802165614292,
      "perigee_km": 642.1729354737372,
      "latitude_deg": 8.094338580247254e-05,
      "longitude_deg": 174.93675937413946,
      "height_km": 646.8201207432479,
      "semi_major_axis_km": 7021.713576017583,
      "eccentricity": 0.0001999,
      "inclination_deg": 97.6855,
      "raan_deg": 319.6481,
      "arg_perigee_deg": 99.2259,
      "mean_anomaly_deg": 260.9178,
      "mean_motion_rev_day": 14.75496205
    },
    {
      "epoch": "2026-04-30T14:39:40.824288Z",
      "apogee_km": 644.9871408192212,
      "perigee_km": 642.1698881205048,
      "latitude_deg": -5.1897079196229284e-06,
      "longitude_deg": -118.05385627788955,
      "height_km": 646.8205852128831,
      "semi_major_axis_km": 7021.715514469863,
      "eccentricity": 0.00020061,
      "inclination_deg": 97.6851,
      "raan_deg": 320.4214,
      "arg_perigee_deg": 99.1318,
      "mean_anomaly_deg": 261.0119,
      "mean_motion_rev_day": 14.75495594
    }
  ]
}